start=new Date('2022-07-21T00:00:00.000Z').valueOf();
sats=[{"GP_ID":"208532426","CENTER_NAME":"EARTH","TLE_LINE2":"2 45674  53.0549 268.6042 0001509  91.2187 268.8975 15.06393312118531","MEAN_MOTION":"15.06393312","DECAY_DATE":null,"MEAN_MOTION_DDOT":"0.0000000000000","REF_FRAME":"TEME","TIME_SYSTEM":"UTC","EPHEMERIS_TYPE":"0","NORAD_CAT_ID":"45674","MEAN_ELEMENT_THEORY":"SGP4","MEAN_ANOMALY":"268.8975","ELEMENT_SET_NO":"999","FILE":"3518363","OBJECT_NAME":"STARLINK-1457","RA_OF_ASC_NODE":"268.6042","APOAPSIS":"548.279","INCLINATION":"53.0549","COUNTRY_CODE":"US","REV_AT_EPOCH":"11853","TLE_LINE1":"1 45674U 20035T   22201.60942384 -.00000720  00000-0 -29419-4 0  9999","SITE":"AFETR","CLASSIFICATION_TYPE":"U","EPOCH":"2022-07-20T14:37:34.219776","OBJECT_ID":"2020-035T","PERIOD":"95.593","ECCENTRICITY":"0.00015090","RCS_SIZE":"LARGE","PERIAPSIS":"546.189","OBJECT_TYPE":"PAYLOAD","MEAN_MOTION_DOT":"-0.00000720","BSTAR":"-0.00002941900000","ARG_OF_PERICENTER":"91.2187","LAUNCH_DATE":"2020-06-04","SEMIMAJOR_AXIS":"6925.369"},{"ARG_OF_PERICENTER":"69.3639","OBJECT_TYPE":"PAYLOAD","PERIAPSIS":"546.085","MEAN_MOTION_DOT":"0.00006082","BSTAR":"0.00042664000000","RCS_SIZE":"LARGE","SEMIMAJOR_AXIS":"6925.294","LAUNCH_DATE":"2020-06-04","COUNTRY_CODE":"US","INCLINATION":"53.0539","ECCENTRICITY":"0.00015500","PERIOD":"95.591","EPOCH":"2022-07-20T12:46:05.227680","OBJECT_ID":"2020-035U","CLASSIFICATION_TYPE":"U","SITE":"AFETR","TLE_LINE1":"1 45675U 20035U   22201.53200495  .00006082  00000-0  42664-3 0  9993","REV_AT_EPOCH":"11813","FILE":"3518255","MEAN_ANOMALY":"290.7516","ELEMENT_SET_NO":"999","MEAN_ELEMENT_THEORY":"SGP4","NORAD_CAT_ID":"45675","EPHEMERIS_TYPE":"0","APOAPSIS":"548.232","RA_OF_ASC_NODE":"268.9532","OBJECT_NAME":"STARLINK-1458","TLE_LINE2":"2 45675  53.0539 268.9532 0001550  69.3639 290.7516 15.06417963118132","CENTER_NAME":"EARTH","GP_ID":"208510535","TIME_SYSTEM":"UTC","REF_FRAME":"TEME","MEAN_MOTION_DDOT":"0.0000000000000","DECAY_DATE":null,"MEAN_MOTION":"15.06417963"},{"COUNTRY_CODE":"US","INCLINATION":"53.0540","PERIOD":"95.592","ECCENTRICITY":"0.00014260","EPOCH":"2022-07-20T12:03:37.963872","OBJECT_ID":"2020-035V","SITE":"AFETR","CLASSIFICATION_TYPE":"U","TLE_LINE1":"1 45676U 20035V   22201.50252273  .00001864  00000-0  14400-3 0  9992","REV_AT_EPOCH":"11850","ARG_OF_PERICENTER":"72.5314","BSTAR":"0.00014400000000","OBJECT_TYPE":"PAYLOAD","PERIAPSIS":"546.242","MEAN_MOTION_DOT":"0.00001864","RCS_SIZE":"LARGE","SEMIMAJOR_AXIS":"6925.365","LAUNCH_DATE":"2020-06-04","TLE_LINE2":"2 45676  53.0540 269.0951 0001426  72.5314 287.5831 15.06394726118506","CENTER_NAME":"EARTH","GP_ID":"208501445","TIME_SYSTEM":"UTC","REF_FRAME":"TEME","MEAN_MOTION_DDOT":"0.0000000000000","MEAN_MOTION":"15.06394726","DECAY_DATE":null,"FILE":"3518111","ELEMENT_SET_NO":"999","MEAN_ANOMALY":"287.5831","MEAN_ELEMENT_THEORY":"SGP4","NORAD_CAT_ID":"45676","EPHEMERIS_TYPE":"0","APOAPSIS":"548.217","RA_OF_ASC_NODE":"269.0951","OBJECT_NAME":"STARLINK-1460"},{"MEAN_MOTION":"15.06405055","DECAY_DATE":null,"REF_FRAME":"TEME","TIME_SYSTEM":"UTC","MEAN_MOTION_DDOT":"0.0000000000000","GP_ID":"208501680","CENTER_NAME":"EARTH","TLE_LINE2":"2 45677  53.0528 269.3211 0001357  77.7009 282.4131 15.06405055118534","OBJECT_NAME":"STARLINK-1392","RA_OF_ASC_NODE":"269.3211","APOAPSIS":"548.138","EPHEMERIS_TYPE":"0","NORAD_CAT_ID":"45677","MEAN_ANOMALY":"282.4131","ELEMENT_SET_NO":"999","MEAN_ELEMENT_THEORY":"SGP4","FILE":"3518111","REV_AT_EPOCH":"11853","SITE":"AFETR","CLASSIFICATION_TYPE":"U","TLE_LINE1":"1 45677U 20035W   22201.44723630  .00004169  00000-0  29857-3 0  9999","EPOCH":"2022-07-20T10:44:01.216320","OBJECT_ID":"2020-035W","PERIOD":"95.592","ECCENTRICITY":"0.00013570","INCLINATION":"53.0528","COUNTRY_CODE":"US","SEMIMAJOR_AXIS":"6925.333","LAUNCH_DATE":"2020-06-04","RCS_SIZE":"LARGE","OBJECT_TYPE":"PAYLOAD","PERIAPSIS":"546.258","MEAN_MOTION_DOT":"0.00004169","BSTAR":"0.00029857000000","ARG_OF_PERICENTER":"77.7009"},{"PERIOD":"95.592","ECCENTRICITY":"0.00018150","EPOCH":"2022-07-20T15:21:21.788064","OBJECT_ID":"2020-035X","SITE":"AFETR","CLASSIFICATION_TYPE":"U","TLE_LINE1":"1 45678U 20035X   22201.63983551 -.00001833  00000-0 -10421-3 0  9995","REV_AT_EPOCH":"11868","COUNTRY_CODE":"US","INCLINATION":"53.0550","SEMIMAJOR_AXIS":"6925.357","LAUNCH_DATE":"2020-06-04","ARG_OF_PERICENTER":"59.7761","PERIAPSIS":"545.965","OBJECT_TYPE":"PAYLOAD","MEAN_MOTION_DOT":"-0.00001833","BSTAR":"-0.00010421000000","RCS_SIZE":"LARGE","REF_FRAME":"TEME","TIME_SYSTEM":"UTC","MEAN_MOTION_DDOT":"0.0000000000000","DECAY_DATE":null,"MEAN_MOTION":"15.06397313","TLE_LINE2":"2 45678  53.0550 258.4616 0001815  59.7761 300.3407 15.06397313118681","CENTER_NAME":"EARTH","GP_ID":"208532927","APOAPSIS":"548.479","RA_OF_ASC_NODE":"258.4616","OBJECT_NAME":"STARLINK-1393","FILE":"3518363","MEAN_ANOMALY":"300.3407","ELEMENT_SET_NO":"999","MEAN_ELEMENT_THEORY":"SGP4","NORAD_CAT_ID":"45678","EPHEMERIS_TYPE":"0"},{"RA_OF_ASC_NODE":"258.4605","OBJECT_NAME":"STARLINK-1394","APOAPSIS":"548.136","NORAD_CAT_ID":"45679","EPHEMERIS_TYPE":"0","FILE":"3518363","MEAN_ANOMALY":"284.9991","ELEMENT_SET_NO":"999","MEAN_ELEMENT_THEORY":"SGP4","REF_FRAME":"TEME","TIME_SYSTEM":"UTC","MEAN_MOTION_DDOT":"0.0000000000000","DECAY_DATE":null,"MEAN_MOTION":"15.06386914","TLE_LINE2":"2 45679  53.0533 258.4605 0001274  75.1139 284.9991 15.06386914118704","CENTER_NAME":"EARTH","GP_ID":"208531676","SEMIMAJOR_AXIS":"6925.389","LAUNCH_DATE":"2020-06-04","RCS_SIZE":"LARGE","ARG_OF_PERICENTER":"75.1139","OBJECT_TYPE":"PAYLOAD","BSTAR":"0.00007734900000","PERIAPSIS":"546.371","MEAN_MOTION_DOT":"0.00000871","CLASSIFICATION_TYPE":"U","SITE":"AFETR","TLE_LINE1":"1 45679U 20035Y   22201.64351938  .00000871  00000-0  77349-4 0  9997","REV_AT_EPOCH":"11870","ECCENTRICITY":"0.00012740","PERIOD":"95.593","EPOCH":"2022-07-20T15:26:40.074432","OBJECT_ID":"2020-035Y","COUNTRY_CODE":"US","INCLINATION":"53.0533"},{"CLASSIFICATION_TYPE":"U","SITE":"AFETR","TLE_LINE1":"1 45680U 20035Z   22201.51817981  .00003264  00000-0  23783-3 0  9991","REV_AT_EPOCH":"11867","PERIOD":"95.592","ECCENTRICITY":"0.00013060","EPOCH":"2022-07-20T12:26:10.735584","OBJECT_ID":"2020-035Z","COUNTRY_CODE":"US","INCLINATION":"53.0536","SEMIMAJOR_AXIS":"6925.320","LAUNCH_DATE":"2020-06-04","RCS_SIZE":"LARGE","ARG_OF_PERICENTER":"70.0135","OBJECT_TYPE":"PAYLOAD","PERIAPSIS":"546.280","MEAN_MOTION_DOT":"0.00003264","BSTAR":"0.00023783000000","REF_FRAME":"TEME","TIME_SYSTEM":"UTC","MEAN_MOTION_DDOT":"0.0000000000000","MEAN_MOTION":"15.06409429","DECAY_DATE":null,"TLE_LINE2":"2 45680  53.0536 259.0260 0001306  70.0135 290.0995 15.06409429118674","CENTER_NAME":"EARTH","GP_ID":"208501944","RA_OF_ASC_NODE":"259.0260","OBJECT_NAME":"STARLINK-1395","APOAPSIS":"548.089","NORAD_CAT_ID":"45680","EPHEMERIS_TYPE":"0","FILE":"3518111","MEAN_ANOMALY":"290.0995","ELEMENT_SET_NO":"999","MEAN_ELEMENT_THEORY":"SGP4"},{"SEMIMAJOR_AXIS":"6925.370","LAUNCH_DATE":"2020-06-04","RCS_SIZE":"LARGE","PERIAPSIS":"546.346","OBJECT_TYPE":"PAYLOAD","MEAN_MOTION_DOT":"0.00000466","BSTAR":"0.00005020200000","ARG_OF_PERICENTER":"71.8222","REV_AT_EPOCH":"11870","SITE":"AFETR","CLASSIFICATION_TYPE":"U","TLE_LINE1":"1 45681U 20035AA  22201.64720313  .00000466  00000-0  50202-4 0  9996","EPOCH":"2022-07-20T15:31:58.350432","OBJECT_ID":"2020-035AA","ECCENTRICITY":"0.00012840","PERIOD":"95.593","INCLINATION":"53.0541","COUNTRY_CODE":"US","OBJECT_NAME":"STARLINK-1396","RA_OF_ASC_NODE":"258.4409","APOAPSIS":"548.125","EPHEMERIS_TYPE":"0","NORAD_CAT_ID":"45681","MEAN_ANOMALY":"288.2907","ELEMENT_SET_NO":"999","MEAN_ELEMENT_THEORY":"SGP4","FILE":"3518363","DECAY_DATE":null,"MEAN_MOTION":"15.06392865","TIME_SYSTEM":"UTC","REF_FRAME":"TEME","MEAN_MOTION_DDOT":"0.0000000000000","GP_ID":"208532677","CENTER_NAME":"EARTH","TLE_LINE2":"2 45681  53.0541 258.4409 0001284  71.8222 288.2907 15.06392865118701"},{"MEAN_MOTION_DDOT":"0.0000000000000","REF_FRAME":"TEME","TIME_SYSTEM":"UTC","DECAY_DATE":null,"MEAN_MOTION":"15.06390971","TLE_LINE2":"2 45682  53.0555 258.3923 0001443  75.5025 284.6124 15.06390971118691","CENTER_NAME":"EARTH","GP_ID":"208532427","APOAPSIS":"548.241","RA_OF_ASC_NODE":"258.3923","OBJECT_NAME":"STARLINK-1397","FILE":"3518363","MEAN_ELEMENT_THEORY":"SGP4","MEAN_ANOMALY":"284.6124","ELEMENT_SET_NO":"999","NORAD_CAT_ID":"45682","EPHEMERIS_TYPE":"0","PERIOD":"95.593","ECCENTRICITY":"0.00014430","EPOCH":"2022-07-20T15:42:35.199648","OBJECT_ID":"2020-035AB","TLE_LINE1":"1 45682U 20035AB  22201.65457407 -.00001579  00000-0 -87152-4 0  9991","SITE":"AFETR","CLASSIFICATION_TYPE":"U","REV_AT_EPOCH":"11869","COUNTRY_CODE":"US","INCLINATION":"53.0555","LAUNCH_DATE":"2020-06-04","SEMIMAJOR_AXIS":"6925.376","ARG_OF_PERICENTER":"75.5025","MEAN_MOTION_DOT":"-0.00001579","OBJECT_TYPE":"PAYLOAD","PERIAPSIS":"546.242","BSTAR":"-0.00008715200000","RCS_SIZE":"LARGE"},{"RCS_SIZE":"LARGE","ARG_OF_PERICENTER":"62.2088","MEAN_MOTION_DOT":"0.00007162","OBJECT_TYPE":"PAYLOAD","PERIAPSIS":"546.233","BSTAR":"0.00049912000000","SEMIMAJOR_AXIS":"6925.323","LAUNCH_DATE":"2020-06-04","COUNTRY_CODE":"US","INCLINATION":"53.0521","CLASSIFICATION_TYPE":"U","SITE":"AFETR","TLE_LINE1":"1 45683U 20035AC  22201.43710083  .00007162  00000-0  49912-3 0  9993","REV_AT_EPOCH":"11867","PERIOD":"95.592","ECCENTRICITY":"0.00013790","EPOCH":"2022-07-20T10:29:25.511712","OBJECT_ID":"2020-035AC","NORAD_CAT_ID":"45683","EPHEMERIS_TYPE":"0","FILE":"3518111","ELEMENT_SET_NO":"999","MEAN_ANOMALY":"297.9041","MEAN_ELEMENT_THEORY":"SGP4","RA_OF_ASC_NODE":"259.3751","OBJECT_NAME":"STARLINK-1399","APOAPSIS":"548.143","CENTER_NAME":"EARTH","TLE_LINE2":"2 45683  53.0521 259.3751 0001379  62.2088 297.9041 15.06408431118679","GP_ID":"208500693","TIME_SYSTEM":"UTC","REF_FRAME":"TEME","MEAN_MOTION_DDOT":"0.0000000000000","DECAY_DATE":null,"MEAN_MOTION":"15.06408431"}];
